IRIDIUM 921 [-]         
1 24873U 97034E   24037.90111428  .00029408  00000+0  97137-3 0  9991
2 24873  86.3875 352.6566 0007412  58.0302 302.1666 15.31229101455045
IRIDIUM 26 [-]          
1 24903U 97043A   24037.86551224  .00000679  00000+0  22619-3 0  9994
2 24903  86.3989 318.8819 0001992  82.3850 277.7573 14.36194487385481
IRIDIUM 22 [-]          
1 24907U 97043E   24037.81993892  .00000587  00000+0  19895-3 0  9994
2 24907  86.3996 322.0331 0002220  85.2509 274.8941 14.35091560385560
DUMMY MASS 1 [-]        
1 24925U 97048A   24037.89360619  .00000813  00000+0  89785-4 0  9990
2 24925  86.3371   4.6299 0009215 100.9035 259.3227 14.86033007431401
DUMMY MASS 2 [-]        
1 24926U 97048B   24037.90894576  .00000807  00000+0  89621-4 0  9999
2 24926  86.3369   6.1417 0009897 109.6248 250.6045 14.85792845431195
IRIDIUM 29 [-]          
1 24944U 97051A   24037.93401434  .00000552  00000+0  18514-3 0  9992
2 24944  86.3997 351.9154 0002464  85.2844 274.8634 14.35544602382058
IRIDIUM 33 [-]          
1 24946U 97051C   24037.90965438  .00000535  00000+0  18372-3 0  9993
2 24946  86.3911 351.1883 0005755 254.8963 105.1597 14.34249785381594
IRIDIUM 28 [-]          
1 24948U 97051E   24037.95498997  .00000745  00000+0  24729-3 0  9997
2 24948  86.4004 349.7086 0001781  83.4320 276.7080 14.36491648382587
